ADRAS-J                 
1 58992U 24034A   24244.70260880  .00008553  00000+0  77259-3 0  9996
2 58992  98.2196 221.2263 0044124 157.6511 202.6644 14.94997793 29141
